{"fetched_at":"2026-03-29T16:36:15Z","count":15609,"tles":[{"name":"STARLINK-3655","line1":"1 51983U 22025AD  26087.88750506  .00001839  00000+0  13360-3 0  9995","line2":"2 51983  53.2175 312.9457 0001479  87.4494 272.6668 15.08845420223954","category":"Starlink"}]}